[{"OBJECT_NAME":"JILIN-1 08","OBJECT_ID":"2018-008F","EPOCH":"2026-03-09T22:37:53.184288","MEAN_MOTION":15.32205976,"ECCENTRICITY":0.00081321,"INCLINATION":97.1902,"RA_OF_ASC_NODE":90.9961,"ARG_OF_PERICENTER":76.0646,"MEAN_ANOMALY":284.15,"EPHEMERIS_TYPE":0,"CLASSIFICATION_TYPE":"U","NORAD_CAT_ID":43160,"ELEMENT_SET_NO":999,"REV_AT_EPOCH":44974,"BSTAR":0.00036689195,"MEAN_MOTION_DOT":0.00011349,"MEAN_MOTION_DDOT":0},{"OBJECT_NAME":"STARLINK-35027","OBJECT_ID":"2025-195J","EPOCH":"2026-03-09T18:16:23.045376","MEAN_MOTION":15.3020009,"ECCENTRICITY":0.00014252,"INCLINATION":53.1585,"RA_OF_ASC_NODE":257.9192,"ARG_OF_PERICENTER":129.1646,"MEAN_ANOMALY":230.9482,"EPHEMERIS_TYPE":0,"CLASSIFICATION_TYPE":"U","NORAD_CAT_ID":65466,"ELEMENT_SET_NO":999,"REV_AT_EPOCH":3000,"BSTAR":0.00042683475,"MEAN_MOTION_DOT":0.00012303,"MEAN_MOTION_DDOT":0}]
